NORAD_CAT_ID,OBJECT_NAME,OBJECT_TYPE,EPOCH,MEAN_MOTION,ECCENTRICITY,INCLINATION,RA_OF_ASC_NODE,ARG_OF_PERICENTER,MEAN_ANOMALY,BSTAR,MEAN_MOTION_DOT,MEAN_MOTION_DDOT,TLE_LINE0,TLE_LINE1,TLE_LINE2,SEMIMAJOR_AXIS,PERIOD,APOGEE,PERIGEE,DECAYED
49740.0,STARLINK-3226,PAYLOAD,2022-03-13 14:00:01,15.08837652,0.0001988,53.2186,210.3331,45.6331,186.1013,-0.0013679,-0.00021991,0.0,0 STARLINK-3226,1 49740U 21115S   22072.58334491 -.00021991  00000-0 -13679-2 0  9996,2 49740  53.2186 210.3331 0001988  45.6331 186.1013 15.08837652  3617,6917.888000000001,95.438,541.128,538.377,0.0
49740.0,STARLINK-3226,PAYLOAD,2022-03-13 22:00:01,15.0880437,0.0002112,53.2182,208.8372,46.0657,197.2523,0.00053557,8.238e-05,0.0,0 STARLINK-3226,1 49740U 21115S   22072.91668981  .00008238  00000-0  53557-3 0  9994,2 49740  53.2182 208.8372 0002112  46.0657 197.2523 15.08804370 16722,6917.989000000001,95.44,541.315,538.393,0.0
49740.0,STARLINK-3226,PAYLOAD,2022-03-14 14:00:01,15.08862623,0.0002056,53.2184,205.8445,48.2337,218.2465,-0.0014036,-0.00022571,0.0,0 STARLINK-3226,1 49740U 21115S   22073.58335648 -.00022571  00000-0 -14036-2 0  9995,2 49740  53.2184 205.8445 0002056  48.2337 218.2465 15.08862623 16823,6917.811,95.436,541.099,538.254,0.0
49740.0,STARLINK-3226,PAYLOAD,2022-03-14 20:00:01,15.08834299,0.0002101,53.2182,204.7229,43.6067,141.5274,0.0017518,0.00027698,0.0,0 STARLINK-3226,1 49740U 21115S   22073.83334491  .00027698  00000-0  17518-2 0  9999,2 49740  53.2182 204.7229 0002101  43.6067 141.5274 15.08834299  3582,6917.898,95.438,541.216,538.309,0.0
49740.0,STARLINK-3226,PAYLOAD,2022-03-15 02:00:01,15.08840786,0.0001897,53.2183,203.5994,46.7896,57.0234,-0.00088724,-0.00014381,0.0,0 STARLINK-3226,1 49740U 21115S   22074.08334491 -.00014381  00000-0 -88724-3 0  9992,2 49740  53.2183 203.5994 0001897  46.7896  57.0234 15.08840786  3578,6917.878000000002,95.438,541.055,538.431,0.0
49740.0,STARLINK-3226,PAYLOAD,2022-03-15 22:00:00,15.08790763,0.0001843,53.218,199.8598,38.509,274.2125,0.00060012,9.263e-05,0.0,0 STARLINK-3226,1 49740U 21115S   22074.91667824  .00009263  00000-0  60012-3 0  9994,2 49740  53.2180 199.8598 0001843  38.5090 274.2125 15.08790763 17024,6918.031,95.441,541.1709999999998,538.621,0.0
49740.0,STARLINK-3226,PAYLOAD,2022-03-16 14:00:01,15.08842478,0.0001813,53.2183,196.8674,38.8669,296.9686,-0.00066763,-0.00010899,0.0,0 STARLINK-3226,1 49740U 21115S   22075.58334491 -.00010899  00000-0 -66763-3 0  9997,2 49740  53.2183 196.8674 0001813  38.8669 296.9686 15.08842478 17126,6917.873000000001,95.437,540.992,538.484,0.0
49740.0,STARLINK-3226,PAYLOAD,2022-03-16 20:00:01,15.08827338,0.0001874,53.2183,195.7456,35.8624,218.665,0.001983,0.00031402,0.0,0 STARLINK-3226,1 49740U 21115S   22075.83334491  .00031402  00000-0  19830-2 0  9998,2 49740  53.2183 195.7456 0001874  35.8624 218.6650 15.08827338  3582,6917.919,95.438,541.081,538.488,0.0
49740.0,STARLINK-3226,PAYLOAD,2022-03-17 06:00:00,15.08831478,0.000172,53.2185,193.8732,41.867,317.1666,0.003322,0.00052967,0.0,0 STARLINK-3226,1 49740U 21115S   22076.25001157  .00052967  00000-0  33220-2 0  9993,2 49740  53.2185 193.8732 0001720  41.8670 317.1666 15.08831478 17226,6917.906,95.438,540.961,538.582,0.0
49740.0,STARLINK-3226,PAYLOAD,2022-03-17 14:00:01,15.0886392,0.0001936,53.2188,192.3786,39.0501,331.5868,-0.00061364,-0.00010048,0.0,0 STARLINK-3226,1 49740U 21115S   22076.58334491 -.00010048  00000-0 -61364-3 0  9996,2 49740  53.2188 192.3786 0001936  39.0501 331.5868 15.08863920  3601,6917.807,95.436,541.012,538.3330000000002,0.0
49740.0,STARLINK-3226,PAYLOAD,2022-03-17 22:00:00,15.08894241,0.0001989,53.2188,190.882,37.1425,345.1064,-0.0044166,-0.00070001,0.0,0 STARLINK-3226,1 49740U 21115S   22076.91667824 -.00070001  00000-0 -44166-2 0  9997,2 49740  53.2188 190.8820 0001989  37.1425 345.1064 15.08894241  3604,6917.715,95.434,540.956,538.2040000000002,0.0
49740.0,STARLINK-3226,PAYLOAD,2022-03-18 08:00:01,15.08850258,0.0001923,53.2181,189.0105,45.3441,81.4347,0.00084591,0.00013204,0.0,0 STARLINK-3226,1 49740U 21115S   22077.33334491  .00013204  00000-0  84591-3 0  9992,2 49740  53.2181 189.0105 0001923  45.3441  81.4347 15.08850258 17384,6917.849,95.437,541.044,538.384,0.0
49740.0,STARLINK-3226,PAYLOAD,2022-03-18 14:00:01,15.08861936,0.0002088,53.2171,187.8898,40.8675,4.6195,-0.0012757,-0.00020546,0.0,0 STARLINK-3226,1 49740U 21115S   22077.58334491 -.00020546  00000-0 -12757-2 0  9992,2 49740  53.2171 187.8898 0002088  40.8675   4.6195 15.08861936  3625,6917.813,95.436,541.123,538.234,0.0
49740.0,STARLINK-3226,PAYLOAD,2022-03-18 22:00:00,15.08864955,0.0002033,53.217,186.393,38.0586,19.0405,-0.0028412,-0.00045254,0.0,0 STARLINK-3226,1 49740U 21115S   22077.91667824 -.00045254  00000-0 -28412-2 0  9996,2 49740  53.2170 186.3930 0002033  38.0586  19.0405 15.08864955  3612,6917.804,95.436,541.076,538.263,0.0
49740.0,STARLINK-3226,PAYLOAD,2022-03-19 02:00:01,15.08827323,0.0001903,53.2173,185.6439,39.6047,203.3708,0.0015325999999999,0.00024179,0.0,0 STARLINK-3226,1 49740U 21115S   22078.08335648  .00024179  00000-0  15326-2 0  9992,2 49740  53.2173 185.6439 0001903  39.6047 203.3708 15.08827323 17500,6917.919,95.438,541.101,538.4680000000002,0.0
49740.0,STARLINK-3226,PAYLOAD,2022-03-19 14:00:01,15.088574,0.0002077,53.2174,183.4009,38.2213,42.0721,-0.002305,-0.00036804,0.0,0 STARLINK-3226,1 49740U 21115S   22078.58334491 -.00036804  00000-0 -23050-2 0  9995,2 49740  53.2174 183.4009 0002077  38.2213  42.0721 15.08857400  3599,6917.8269999999975,95.436,541.129,538.255,0.0
49740.0,STARLINK-3226,PAYLOAD,2022-03-19 22:00:01,15.088493,0.0001993,53.2173,181.904,35.6889,56.2713,-0.0019969,-0.00031937,0.0,0 STARLINK-3226,1 49740U 21115S   22078.91668981 -.00031937  00000-0 -19969-2 0  9992,2 49740  53.2173 181.9040 0001993  35.6889  56.2713 15.08849300 17629,6917.852,95.437,541.096,538.3380000000002,0.0
49740.0,STARLINK-3226,PAYLOAD,2022-03-20 14:00:01,15.0884032,0.0002037,53.2174,178.9121,36.502,78.5754,-6.2976e-05,-1.29e-05,0.0,0 STARLINK-3226,1 49740U 21115S   22079.58334491 -.00001290  00000-0 -62976-4 0  9999,2 49740  53.2174 178.9121 0002037  36.5020  78.5754 15.08840320 17729,6917.879,95.438,541.154,538.335,0.0
49740.0,STARLINK-3226,PAYLOAD,2022-03-20 22:00:01,15.08875599,0.0001943,53.217,177.415,34.7064,92.0329,-0.0041985,-0.00066556,0.0,0 STARLINK-3226,1 49740U 21115S   22079.91668981 -.00066556  00000-0 -41985-2 0  9991,2 49740  53.2170 177.4150 0001943  34.7064  92.0329 15.08875599  3601,6917.772,95.435,540.981,538.2919999999998,0.0
49740.0,STARLINK-3226,PAYLOAD,2022-03-21 14:00:01,15.08835759,0.0001995,53.2169,174.4232,34.7903,115.0754,-0.00038986,-6.487e-05,0.0,0 STARLINK-3226,1 49740U 21115S   22080.58334491 -.00006487  00000-0 -38986-3 0  9997,2 49740  53.2169 174.4232 0001995  34.7903 115.0754 15.08835759  3596,6917.893,95.438,541.138,538.378,0.0
49740.0,STARLINK-3226,PAYLOAD,2022-03-21 22:00:00,15.08849166,0.0001942,53.2164,172.926,36.3858,125.0714,-0.0034101,-0.00054167,0.0,0 STARLINK-3226,1 49740U 21115S   22080.91667824 -.00054167  00000-0 -34101-2 0  9995,2 49740  53.2164 172.9260 0001942  36.3858 125.0714 15.08849166 17920,6917.852,95.437,541.061,538.374,0.0
49740.0,STARLINK-3226,PAYLOAD,2022-03-22 14:00:01,15.08816714,0.0002062,53.2162,169.9344,37.8009,146.8129,0.0008234999999999,0.00012834,0.0,0 STARLINK-3226,1 49740U 21115S   22081.58334491  .00012834  00000-0  82350-3 0  9993,2 49740  53.2162 169.9344 0002062  37.8009 146.8129 15.08816714 18021,6917.9519999999975,95.439,541.243,538.39,0.0
49740.0,STARLINK-3226,PAYLOAD,2022-03-22 22:00:01,15.08848491,0.0001968,53.2157,168.4369,38.5369,157.7159,-0.0015413,-0.0002474,0.0,0 STARLINK-3226,1 49740U 21115S   22081.91668981 -.00024740  00000-0 -15413-2 0  9990,2 49740  53.2157 168.4369 0001968  38.5369 157.7159 15.08848491  3606,6917.854,95.437,541.081,538.3580000000002,0.0
49740.0,STARLINK-3226,PAYLOAD,2022-03-23 14:00:01,15.08834593,0.0002112,53.2156,165.4454,38.0706,181.3149,0.0014897,0.00023497,0.0,0 STARLINK-3226,1 49740U 21115S   22082.58334491  .00023497  00000-0  14897-2 0  9991,2 49740  53.2156 165.4454 0002112  38.0706 181.3149 15.08834593  3610,6917.897,95.438,541.2230000000002,538.3009999999998,0.0
49740.0,STARLINK-3226,PAYLOAD,2022-03-23 22:00:00,15.08873133,0.0001968,53.2153,163.9476,37.4455,193.5403,-0.0040954,-0.0006494,0.0,0 STARLINK-3226,1 49740U 21115S   22082.91667824 -.00064940  00000-0 -40954-2 0  9990,2 49740  53.2153 163.9476 0001968  37.4455 193.5403 15.08873133 18220,6917.779,95.435,541.006,538.283,0.0
49740.0,STARLINK-3226,PAYLOAD,2022-03-24 14:00:01,15.08827477,0.0002122,53.2156,160.9561,35.7105,218.4762,0.0014222999999999,0.00022413,0.0,0 STARLINK-3226,1 49740U 21115S   22083.58334491  .00022413  00000-0  14223-2 0  9992,2 49740  53.2156 160.9561 0002122  35.7105 218.4762 15.08827477  3589,6917.919,95.438,541.252,538.316,0.0
49740.0,STARLINK-3226,PAYLOAD,2022-03-24 22:00:00,15.08856313,0.0001976,53.2155,159.4583,34.6549,231.1327,-0.0029382,-0.00046768,0.0,0 STARLINK-3226,1 49740U 21115S   22083.91667824 -.00046768  00000-0 -29382-2 0  9991,2 49740  53.2155 159.4583 0001976  34.6549 231.1327 15.08856313  3604,6917.831,95.437,541.062,538.3290000000002,0.0
49740.0,STARLINK-3226,PAYLOAD,2022-03-25 00:00:02,15.08820679,0.0001906,53.2156,159.0837,35.6924,323.0681,0.0012303,0.00019336,0.0,0 STARLINK-3226,1 49740U 21115S   22084.00002315  .00019336  00000-0  12303-2 0  9994,2 49740  53.2156 159.0837 0001906  35.6924 323.0681 15.08820679 18396,6917.939,95.439,541.123,538.486,0.0
49740.0,STARLINK-3226,PAYLOAD,2022-03-25 14:00:01,15.08822248,0.0002192,53.216,156.4669,34.5104,254.4623,0.0021356,0.00033848,0.0,0 STARLINK-3226,1 49740U 21115S   22084.58334491  .00033848  00000-0  21356-2 0  9992,2 49740  53.2160 156.4669 0002192  34.5104 254.4623 15.08822248  3583,6917.935,95.439,541.316,538.283,0.0
